PANDORA
1 67395U 80229J   26139.67612269  .00000000  00000-0  37770-3 0    01
2 67395  97.8043 138.7784 0004492 205.9712 245.8972 14.88007391    04
